{
  "type": "FeatureCollection",
  "features": [
    {
      "type": "Feature",
      "properties": {
        "norad_id": 65729,
        "name": "DRAGONFLY",
        "group": "stations",
        "lat": 46.56086469125613,
        "lon": -78.04659079948499,
        "alt_km": 355.3784249972232,
        "timestamp": "2025-12-08T05:48:07.852309+00:00",
        "meta_object_name": "DRAGONFLY",
        "meta_object_id": "1998-067XH",
        "meta_epoch": "2025-12-07T18:37:59.082528",
        "meta_mean_motion": 15.69912986,
        "meta_eccentricity": 0.00064534,
        "meta_inclination": 51.6247,
        "meta_ra_of_asc_node": 161.1411,
        "meta_arg_of_pericenter": 246.5239,
        "meta_mean_anomaly": 113.508,
        "meta_ephemeris_type": 0,
        "meta_classification_type": "U",
        "meta_norad_cat_id": 65729,
        "meta_element_set_no": 999,
        "meta_rev_at_epoch": 1238,
        "meta_bstar": 0.0015255266,
        "meta_mean_motion_dot": 0.0019059,
        "meta_mean_motion_ddot": 0,
        "tle_line1": "1 65729U 98067XH  25341.77637827  .00190590  00000+0  15255-2 0  9994",
        "tle_line2": "2 65729  51.6247 161.1411 0006453 246.5239 113.5080 15.69912986 12388"
      },
      "geometry": {
        "type": "Point",
        "coordinates": [
          -78.04659079948499,
          46.56086469125613
        ]
      }
    },
    {
      "type": "Feature",
      "properties": {
        "norad_id": 65731,
        "name": "1998-067XK",
        "group": "stations",
        "lat": -36.955752182578934,
        "lon": 16.625263588048263,
        "alt_km": 374.70414134899966,
        "timestamp": "2025-12-08T05:48:07.852318+00:00",
        "meta_object_name": "1998-067XK",
        "meta_object_id": "1998-067XK",
        "meta_epoch": "2025-12-07T18:05:33.299232",
        "meta_mean_motion": 15.64530779,
        "meta_eccentricity": 0.00055056,
        "meta_inclination": 51.6281,
        "meta_ra_of_asc_node": 162.5042,
        "meta_arg_of_pericenter": 215.4402,
        "meta_mean_anomaly": 144.6228,
        "meta_ephemeris_type": 0,
        "meta_classification_type": "U",
        "meta_norad_cat_id": 65731,
        "meta_element_set_no": 999,
        "meta_rev_at_epoch": 1236,
        "meta_bstar": 0.0011823689,
        "meta_mean_motion_dot": 0.00117476,
        "meta_mean_motion_ddot": 0,
        "tle_line1": "1 65731U 98067XK  25341.75385763  .00117476  00000+0  11824-2 0  9994",
        "tle_line2": "2 65731  51.6281 162.5042 0005505 215.4402 144.6228 15.64530779 12366"
      },
      "geometry": {
        "type": "Point",
        "coordinates": [
          16.625263588048263,
          -36.955752182578934
        ]
      }
    },
    {
      "type": "Feature",
      "properties": {
        "norad_id": 65732,
        "name": "RSP-03",
        "group": "stations",
        "lat": 16.63685566554618,
        "lon": -34.27425471933293,
        "alt_km": 363.3067454884849,
        "timestamp": "2025-12-08T05:48:07.852328+00:00",
        "meta_object_name": "RSP-03",
        "meta_object_id": "1998-067XL",
        "meta_epoch": "2025-12-07T18:24:55.272096",
        "meta_mean_motion": 15.67058622,
        "meta_eccentricity": 0.00062986,
        "meta_inclination": 51.6259,
        "meta_ra_of_asc_node": 161.8362,
        "meta_arg_of_pericenter": 219.1939,
        "meta_mean_anomaly": 140.8602,
        "meta_ephemeris_type": 0,
        "meta_classification_type": "U",
        "meta_norad_cat_id": 65732,
        "meta_element_set_no": 999,
        "meta_rev_at_epoch": 1238,
        "meta_bstar": 0.0013851426,
        "meta_mean_motion_dot": 0.00153139,
        "meta_mean_motion_ddot": 0,
        "tle_line1": "1 65732U 98067XL  25341.76730639  .00153139  00000+0  13851-2 0  9990",
        "tle_line2": "2 65732  51.6259 161.8362 0006298 219.1939 140.8602 15.67058622 12386"
      },
      "geometry": {
        "type": "Point",
        "coordinates": [
          -34.27425471933293,
          16.63685566554618
        ]
      }
    },
    {
      "type": "Feature",
      "properties": {
        "norad_id": 65733,
        "name": "GHS-01",
        "group": "stations",
        "lat": -13.40885417460109,
        "lon": 147.39994541647945,
        "alt_km": 354.36803531274836,
        "timestamp": "2025-12-08T05:48:07.852338+00:00",
        "meta_object_name": "GHS-01",
        "meta_object_id": "1998-067XM",
        "meta_epoch": "2025-12-07T19:11:53.922624",
        "meta_mean_motion": 15.72338376,
        "meta_eccentricity": 0.00069283,
        "meta_inclination": 51.6274,
        "meta_ra_of_asc_node": 160.5539,
        "meta_arg_of_pericenter": 245.5916,
        "meta_mean_anomaly": 114.436,
        "meta_ephemeris_type": 0,
        "meta_classification_type": "U",
        "meta_norad_cat_id": 65733,
        "meta_element_set_no": 999,
        "meta_rev_at_epoch": 1240,
        "meta_bstar": 0.0017129744,
        "meta_mean_motion_dot": 0.00238468,
        "meta_mean_motion_ddot": 0,
        "tle_line1": "1 65733U 98067XM  25341.79992966  .00238468  00000+0  17130-2 0  9990",
        "tle_line2": "2 65733  51.6274 160.5539 0006928 245.5916 114.4360 15.72338376 12408"
      },
      "geometry": {
        "type": "Point",
        "coordinates": [
          147.39994541647945,
          -13.40885417460109
        ]
      }
    },
    {
      "type": "Feature",
      "properties": {
        "norad_id": 65941,
        "name": "YOTSUBA-KULOVER",
        "group": "stations",
        "lat": 51.60734444494276,
        "lon": -107.0666666680474,
        "alt_km": 384.8744401444055,
        "timestamp": "2025-12-08T05:48:07.852348+00:00",
        "meta_object_name": "YOTSUBA-KULOVER",
        "meta_object_id": "1998-067XN",
        "meta_epoch": "2025-12-07T12:29:23.884512",
        "meta_mean_motion": 15.58552395,
        "meta_eccentricity": 0.00017957,
        "meta_inclination": 51.628,
        "meta_ra_of_asc_node": 166.1928,
        "meta_arg_of_pericenter": 200.639,
        "meta_mean_anomaly": 159.453,
        "meta_ephemeris_type": 0,
        "meta_classification_type": "U",
        "meta_norad_cat_id": 65941,
        "meta_element_set_no": 999,
        "meta_rev_at_epoch": 904,
        "meta_bstar": 0.0010602119,
        "meta_mean_motion_dot": 0.00083069,
        "meta_mean_motion_ddot": 0,
        "tle_line1": "1 65941U 98067XN  25341.52041533  .00083069  00000+0  10602-2 0  9999",
        "tle_line2": "2 65941  51.6280 166.1928 0001795 200.6390 159.4530 15.58552395  9042"
      },
      "geometry": {
        "type": "Point",
        "coordinates": [
          -107.0666666680474,
          51.60734444494276
        ]
      }
    },
    {
      "type": "Feature",
      "properties": {
        "norad_id": 65942,
        "name": "BOTAN",
        "group": "stations",
        "lat": 5.315510640384879,
        "lon": 166.22158889647338,
        "alt_km": 385.3194719411167,
        "timestamp": "2025-12-08T05:48:07.852358+00:00",
        "meta_object_name": "BOTAN",
        "meta_object_id": "1998-067XP",
        "meta_epoch": "2025-12-07T19:01:20.591616",
        "meta_mean_motion": 15.61568201,
        "meta_eccentricity": 0.00038466,
        "meta_inclination": 51.6278,
        "meta_ra_of_asc_node": 164.2597,
        "meta_arg_of_pericenter": 199.4813,
        "meta_mean_anomaly": 160.6034,
        "meta_ephemeris_type": 0,
        "meta_classification_type": "U",
        "meta_norad_cat_id": 65942,
        "meta_element_set_no": 999,
        "meta_rev_at_epoch": 909,
        "meta_bstar": 0.0014856756,
        "meta_mean_motion_dot": 0.00131716,
        "meta_mean_motion_ddot": 0,
        "tle_line1": "1 65942U 98067XP  25341.79259944  .00131716  00000+0  14857-2 0  9995",
        "tle_line2": "2 65942  51.6278 164.2597 0003846 199.4813 160.6034 15.61568201  9090"
      },
      "geometry": {
        "type": "Point",
        "coordinates": [
          166.22158889647338,
          5.315510640384879
        ]
      }
    },
    {
      "type": "Feature",
      "properties": {
        "norad_id": 65943,
        "name": "E-KAGAKU-1",
        "group": "stations",
        "lat": 51.60752683292382,
        "lon": -106.76190453486156,
        "alt_km": 384.30540568120614,
        "timestamp": "2025-12-08T05:48:07.852368+00:00",
        "meta_object_name": "E-KAGAKU-1",
        "meta_object_id": "1998-067XQ",
        "meta_epoch": "2025-12-07T18:38:39.521184",
        "meta_mean_motion": 15.58562644,
        "meta_eccentricity": 0.00029586,
        "meta_inclination": 51.6295,
        "meta_ra_of_asc_node": 164.9078,
        "meta_arg_of_pericenter": 173.7443,
        "meta_mean_anomaly": 186.3587,
        "meta_ephemeris_type": 0,
        "meta_classification_type": "U",
        "meta_norad_cat_id": 65943,
        "meta_element_set_no": 999,
        "meta_rev_at_epoch": 908,
        "meta_bstar": 0.0011280115,
        "meta_mean_motion_dot": 0.00088516,
        "meta_mean_motion_ddot": 0,
        "tle_line1": "1 65943U 98067XQ  25341.77684631  .00088516  00000+0  11280-2 0  9995",
        "tle_line2": "2 65943  51.6295 164.9078 0002958 173.7443 186.3587 15.58562644  9086"
      },
      "geometry": {
        "type": "Point",
        "coordinates": [
          -106.76190453486156,
          51.60752683292382
        ]
      }
    }
  ]
}